{
  "type": "FeatureCollection",
  "features": [
    {
      "type": "Feature",
      "properties": {
        "norad_id": 44873,
        "name": "CSG-1",
        "group": "resource",
        "lat": 54.65327321512711,
        "lon": 151.5413496606996,
        "alt_km": 616.4762454686661,
        "timestamp": "2025-12-07T09:35:09.449816+00:00",
        "meta_object_name": "CSG-1",
        "meta_object_id": "2019-092A",
        "meta_epoch": "2025-12-06T21:59:41.939232",
        "meta_mean_motion": 14.8215152,
        "meta_eccentricity": 0.00014628,
        "meta_inclination": 97.8813,
        "meta_ra_of_asc_node": 162.3283,
        "meta_arg_of_pericenter": 86.1772,
        "meta_mean_anomaly": 273.9608,
        "meta_ephemeris_type": 0,
        "meta_classification_type": "U",
        "meta_norad_cat_id": 44873,
        "meta_element_set_no": 999,
        "meta_rev_at_epoch": 32299,
        "meta_bstar": 0.00015222153,
        "meta_mean_motion_dot": 1.16e-05,
        "meta_mean_motion_ddot": 0,
        "tle_line1": "1 44873U 19092A   25340.91645763  .00001160  00000+0  15222-3 0  9994",
        "tle_line2": "2 44873  97.8813 162.3283 0001462  86.1772 273.9608 14.82151520322992"
      },
      "geometry": {
        "type": "Point",
        "coordinates": [
          151.5413496606996,
          54.65327321512711
        ]
      }
    },
    {
      "type": "Feature",
      "properties": {
        "norad_id": 46277,
        "name": "NEMO-HD",
        "group": "resource",
        "lat": 0.29745226371053657,
        "lon": -139.3961603241521,
        "alt_km": 449.4048852969845,
        "timestamp": "2025-12-07T09:35:09.449826+00:00",
        "meta_object_name": "NEMO-HD",
        "meta_object_id": "2020-061F",
        "meta_epoch": "2025-12-06T21:53:37.578336",
        "meta_mean_motion": 15.40149485,
        "meta_eccentricity": 0.0002185,
        "meta_inclination": 97.2217,
        "meta_ra_of_asc_node": 40.0852,
        "meta_arg_of_pericenter": 63.5057,
        "meta_mean_anomaly": 296.6414,
        "meta_ephemeris_type": 0,
        "meta_classification_type": "U",
        "meta_norad_cat_id": 46277,
        "meta_element_set_no": 999,
        "meta_rev_at_epoch": 29234,
        "meta_bstar": 0.00038600404,
        "meta_mean_motion_dot": 0.00015408,
        "meta_mean_motion_ddot": 0,
        "tle_line1": "1 46277U 20061F   25340.91224049  .00015408  00000+0  38600-3 0  9997",
        "tle_line2": "2 46277  97.2217  40.0852 0002185  63.5057 296.6414 15.40149485292340"
      },
      "geometry": {
        "type": "Point",
        "coordinates": [
          -139.3961603241521,
          0.29745226371053657
        ]
      }
    },
    {
      "type": "Feature",
      "properties": {
        "norad_id": 46984,
        "name": "SENTINEL-6A",
        "group": "resource",
        "lat": -39.88587828235192,
        "lon": 151.58603057056618,
        "alt_km": 1339.1538275166022,
        "timestamp": "2025-12-07T09:35:09.449836+00:00",
        "meta_object_name": "SENTINEL-6A",
        "meta_object_id": "2020-086A",
        "meta_epoch": "2025-12-06T22:34:30.091584",
        "meta_mean_motion": 12.80930313,
        "meta_eccentricity": 0.00077413,
        "meta_inclination": 66.0392,
        "meta_ra_of_asc_node": 174.3533,
        "meta_arg_of_pericenter": 269.2083,
        "meta_mean_anomaly": 90.8045,
        "meta_ephemeris_type": 0,
        "meta_classification_type": "U",
        "meta_norad_cat_id": 46984,
        "meta_element_set_no": 999,
        "meta_rev_at_epoch": 23570,
        "meta_bstar": 6.0615215e-05,
        "meta_mean_motion_dot": -4.7e-07,
        "meta_mean_motion_ddot": 0,
        "tle_line1": "1 46984U 20086A   25340.94062606 -.00000047  00000+0  60615-4 0  9997",
        "tle_line2": "2 46984  66.0392 174.3533 0007741 269.2083  90.8045 12.80930313235707"
      },
      "geometry": {
        "type": "Point",
        "coordinates": [
          151.58603057056618,
          -39.88587828235192
        ]
      }
    },
    {
      "type": "Feature",
      "properties": {
        "norad_id": 48079,
        "name": "GAOFEN-12 02",
        "group": "resource",
        "lat": -15.6111265858754,
        "lon": -22.32068362815896,
        "alt_km": 633.4527854456992,
        "timestamp": "2025-12-07T09:35:09.449847+00:00",
        "meta_object_name": "GAOFEN-12 02",
        "meta_object_id": "2021-026A",
        "meta_epoch": "2025-12-06T22:18:13.922784",
        "meta_mean_motion": 14.80664343,
        "meta_eccentricity": 0.0003397,
        "meta_inclination": 97.9848,
        "meta_ra_of_asc_node": 334.9638,
        "meta_arg_of_pericenter": 112.5658,
        "meta_mean_anomaly": 247.5914,
        "meta_ephemeris_type": 0,
        "meta_classification_type": "U",
        "meta_norad_cat_id": 48079,
        "meta_element_set_no": 999,
        "meta_rev_at_epoch": 25331,
        "meta_bstar": 0.00013441732,
        "meta_mean_motion_dot": 9.8e-06,
        "meta_mean_motion_ddot": 0,
        "tle_line1": "1 48079U 21026A   25340.92932781  .00000980  00000+0  13442-3 0  9997",
        "tle_line2": "2 48079  97.9848 334.9638 0003397 112.5658 247.5914 14.80664343253316"
      },
      "geometry": {
        "type": "Point",
        "coordinates": [
          -22.32068362815896,
          -15.6111265858754
        ]
      }
    },
    {
      "type": "Feature",
      "properties": {
        "norad_id": 48268,
        "name": "PLEIADES NEO 3",
        "group": "resource",
        "lat": 31.713096394935445,
        "lon": 48.99788376148272,
        "alt_km": 621.8066244346082,
        "timestamp": "2025-12-07T09:35:09.449857+00:00",
        "meta_object_name": "PLEIADES NEO 3",
        "meta_object_id": "2021-034A",
        "meta_epoch": "2025-12-06T22:05:46.818528",
        "meta_mean_motion": 14.8167615,
        "meta_eccentricity": 0.00013443,
        "meta_inclination": 97.8949,
        "meta_ra_of_asc_node": 53.445,
        "meta_arg_of_pericenter": 94.8131,
        "meta_mean_anomaly": 265.3235,
        "meta_ephemeris_type": 0,
        "meta_classification_type": "U",
        "meta_norad_cat_id": 48268,
        "meta_element_set_no": 999,
        "meta_rev_at_epoch": 24918,
        "meta_bstar": 2.712307e-05,
        "meta_mean_motion_dot": 1.61e-06,
        "meta_mean_motion_ddot": 0,
        "tle_line1": "1 48268U 21034A   25340.92068077  .00000161  00000+0  27123-4 0  9997",
        "tle_line2": "2 48268  97.8949  53.4450 0001344  94.8131 265.3235 14.81676150249184"
      },
      "geometry": {
        "type": "Point",
        "coordinates": [
          48.99788376148272,
          31.713096394935445
        ]
      }
    },
    {
      "type": "Feature",
      "properties": {
        "norad_id": 49070,
        "name": "PLEIADES NEO 4",
        "group": "resource",
        "lat": -31.98909998620174,
        "lon": -131.05976761168955,
        "alt_km": 630.5790617073171,
        "timestamp": "2025-12-07T09:35:09.449867+00:00",
        "meta_object_name": "PLEIADES NEO 4",
        "meta_object_id": "2021-073E",
        "meta_epoch": "2025-12-06T21:17:08.524608",
        "meta_mean_motion": 14.81672746,
        "meta_eccentricity": 0.00012707,
        "meta_inclination": 97.895,
        "meta_ra_of_asc_node": 53.4074,
        "meta_arg_of_pericenter": 95.5132,
        "meta_mean_anomaly": 264.6226,
        "meta_ephemeris_type": 0,
        "meta_classification_type": "U",
        "meta_norad_cat_id": 49070,
        "meta_element_set_no": 999,
        "meta_rev_at_epoch": 23289,
        "meta_bstar": -4.120072e-06,
        "meta_mean_motion_dot": -8.4e-07,
        "meta_mean_motion_ddot": 0,
        "tle_line1": "1 49070U 21073E   25340.88690422 -.00000084  00000+0 -41201-5 0  9992",
        "tle_line2": "2 49070  97.8950  53.4074 0001270  95.5132 264.6226 14.81672746232896"
      },
      "geometry": {
        "type": "Point",
        "coordinates": [
          -131.05976761168955,
          -31.98909998620174
        ]
      }
    },
    {
      "type": "Feature",
      "properties": {
        "norad_id": 49260,
        "name": "LANDSAT 9",
        "group": "resource",
        "lat": -19.68090398732558,
        "lon": 52.547766202840954,
        "alt_km": 707.928902665305,
        "timestamp": "2025-12-07T09:35:09.449877+00:00",
        "meta_object_name": "LANDSAT 9",
        "meta_object_id": "2021-088A",
        "meta_epoch": "2025-12-06T22:08:26.318976",
        "meta_mean_motion": 14.57121107,
        "meta_eccentricity": 0.00011036,
        "meta_inclination": 98.2101,
        "meta_ra_of_asc_node": 49.1177,
        "meta_arg_of_pericenter": 94.1258,
        "meta_mean_anomaly": 266.0067,
        "meta_ephemeris_type": 0,
        "meta_classification_type": "U",
        "meta_norad_cat_id": 49260,
        "meta_element_set_no": 999,
        "meta_rev_at_epoch": 22300,
        "meta_bstar": 0.00019842217,
        "meta_mean_motion_dot": 8.49e-06,
        "meta_mean_motion_ddot": 0,
        "tle_line1": "1 49260U 21088A   25340.92252684  .00000849  00000+0  19842-3 0  9999",
        "tle_line2": "2 49260  98.2101  49.1177 0001103  94.1258 266.0067 14.57121107223000"
      },
      "geometry": {
        "type": "Point",
        "coordinates": [
          52.547766202840954,
          -19.68090398732558
        ]
      }
    }
  ]
}